NORAD_CAT_ID,OBJECT_NAME,OBJECT_TYPE,EPOCH,MEAN_MOTION,ECCENTRICITY,INCLINATION,RA_OF_ASC_NODE,ARG_OF_PERICENTER,MEAN_ANOMALY,BSTAR,MEAN_MOTION_DOT,MEAN_MOTION_DDOT,TLE_LINE0,TLE_LINE1,TLE_LINE2,SEMIMAJOR_AXIS,PERIOD,APOGEE,PERIGEE,DECAYED
49138.0,STARLINK-3058,PAYLOAD,2022-04-25 22:00:00,14.98328487,0.0003259,69.9994,259.0659,272.4876,341.9269,0.00034684,4.048e-05,0.0,0 STARLINK-3058,1 49138U 21082J   22115.91667824  .00004048  00000-0  34684-3 0  9996,2 49138  69.9994 259.0659 0003259 272.4876 341.9269 14.98328487  3599,6950.198,96.107,574.328,569.798,0.0
49138.0,STARLINK-3058,PAYLOAD,2022-04-26 06:00:00,14.98299123,0.0003286,69.9996,258.2254,266.8932,345.019,0.0065838,0.00079297,0.0,0 STARLINK-3058,1 49138U 21082J   22116.25001157  .00079297  00000-0  65838-2 0  9997,2 49138  69.9996 258.2254 0003286 266.8932 345.0190 14.98299123 34252,6950.288000000001,96.109,574.437,569.87,0.0
49138.0,STARLINK-3058,PAYLOAD,2022-04-26 14:00:01,14.98361759,0.0003296,69.9999,257.3849,268.992,340.4579,-0.0032606,-0.00038816,0.0,0 STARLINK-3058,1 49138U 21082J   22116.58335648 -.00038816  00000-0 -32606-2 0  9999,2 49138  69.9999 257.3849 0003296 268.9920 340.4579 14.98361759 34307,6950.095,96.105,574.25,569.669,0.0
49138.0,STARLINK-3058,PAYLOAD,2022-04-26 22:00:00,14.98345853,0.0003204,69.9995,256.5444,272.7778,334.1169,-0.0020335,-0.00024283,0.0,0 STARLINK-3058,1 49138U 21082J   22116.91667824 -.00024283  00000-0 -20335-2 0  9999,2 49138  69.9995 256.5444 0003204 272.7778 334.1169 14.98345853  3542,6950.144,96.106,574.236,569.7819999999998,0.0
49138.0,STARLINK-3058,PAYLOAD,2022-04-27 06:00:00,14.98297132,0.0003194,69.9998,255.7039,267.1661,337.2286,0.0065099999999999,0.00078392,0.0,0 STARLINK-3058,1 49138U 21082J   22117.25001157  .00078392  00000-0  65100-2 0  9995,2 49138  69.9998 255.7039 0003194 267.1661 337.2286 14.98297132 34402,6950.295,96.109,574.379,569.94,0.0
49138.0,STARLINK-3058,PAYLOAD,2022-04-27 14:00:01,14.98355239,0.00032,70.0001,254.8634,269.9273,332.0037,-0.0028295,-0.00033715,0.0,0 STARLINK-3058,1 49138U 21082J   22117.58335648 -.00033715  00000-0 -28295-2 0  9992,2 49138  70.0001 254.8634 0003200 269.9273 332.0037 14.98355239 34453,6950.115,96.105,574.2040000000002,569.756,0.0
49138.0,STARLINK-3058,PAYLOAD,2022-04-28 06:00:00,14.98304831,0.0003062,70.0,253.1825,268.0129,328.867,0.0067575,0.00081427,0.0,0 STARLINK-3058,1 49138U 21082J   22118.25001157  .00081427  00000-0  67575-2 0  9997,2 49138  70.0000 253.1825 0003062 268.0129 328.8670 14.98304831 34551,6950.271,96.109,574.264,570.008,0.0
49138.0,STARLINK-3058,PAYLOAD,2022-04-28 14:00:01,14.98367252,0.0003116,70.0004,252.3421,271.1349,323.2281,-0.0038134,-0.00045345,0.0,0 STARLINK-3058,1 49138U 21082J   22118.58334491 -.00045345  00000-0 -38134-2 0  9993,2 49138  70.0004 252.3421 0003116 271.1349 323.2281 14.98367252 34606,6950.078,96.105,574.1080000000002,569.7769999999998,0.0
49138.0,STARLINK-3058,PAYLOAD,2022-04-29 06:00:00,14.98290716,0.0003052,70.0003,250.661,268.5831,320.7974,0.0066507,0.00080094,0.0,0 STARLINK-3058,1 49138U 21082J   22119.25001157  .00080094  00000-0  66507-2 0  9991,2 49138  70.0003 250.6610 0003052 268.5831 320.7974 14.98290716 34703,6950.314,96.11,574.3009999999998,570.058,0.0
49138.0,STARLINK-3058,PAYLOAD,2022-04-29 14:00:01,14.9834971,0.0003117,70.0007,249.8204,271.5427,315.3,-0.0045369,-0.00053841,0.0,0 STARLINK-3058,1 49138U 21082J   22119.58334491 -.00053841  00000-0 -45369-2 0  9992,2 49138  70.0007 249.8204 0003117 271.5427 315.3000 14.98349710 34757,6950.132,96.106,574.163,569.831,0.0
49138.0,STARLINK-3058,PAYLOAD,2022-04-29 22:00:00,14.98351125,0.0003091,70.0003,248.9896,272.2866,311.999,-0.012176,-0.00142541,0.0,0 STARLINK-3058,1 49138U 21082J   22119.91667824 -.00142541  00000-0 -12176-1 0  9993,2 49138  70.0003 248.9896 0003091 272.2866 311.9990 14.98351125  3586,6950.128000000002,96.106,574.141,569.844,0.0
49138.0,STARLINK-3058,PAYLOAD,2022-04-30 06:00:00,14.98302502,0.000324,70.0007,248.1395,268.0598,313.718,0.0055525,0.00066747,0.0,0 STARLINK-3058,1 49138U 21082J   22120.25001157  .00066747  00000-0  55525-2 0  9990,2 49138  70.0007 248.1395 0003240 268.0598 313.7180 14.98302502 34857,6950.278,96.109,574.395,569.891,0.0
49138.0,STARLINK-3058,PAYLOAD,2022-04-30 14:00:01,14.98334003,0.0003373,70.001,247.2989,271.106,308.1466,-0.0034445,-0.00040958,0.0,0 STARLINK-3058,1 49138U 21082J   22120.58334491 -.00040958  00000-0 -34445-2 0  9992,2 49138  70.0010 247.2989 0003373 271.1060 308.1466 14.98334003 34908,6950.181,96.107,574.39,569.701,0.0
49138.0,STARLINK-3058,PAYLOAD,2022-04-30 22:00:00,14.98337831,0.0003415,70.0007,246.4584,273.4282,303.2983,-0.0016937,-0.00020248,0.0,0 STARLINK-3058,1 49138U 21082J   22120.91667824 -.00020248  00000-0 -16937-2 0  9994,2 49138  70.0007 246.4584 0003415 273.4282 303.2983 14.98337831 34951,6950.169,96.106,574.4069999999998,569.66,0.0
49138.0,STARLINK-3058,PAYLOAD,2022-05-01 14:00:01,14.98349108,0.0003417,70.0013,244.7776,270.707,300.9779,-0.0045962,-0.00054539,0.0,0 STARLINK-3058,1 49138U 21082J   22121.58334491 -.00054539  00000-0 -45962-2 0  9999,2 49138  70.0013 244.7776 0003417 270.7070 300.9779 14.98349108  3569,6950.134,96.106,574.374,569.624,0.0
49138.0,STARLINK-3058,PAYLOAD,2022-05-01 22:00:01,14.98336384,0.0003303,70.0009,243.9369,272.86400000000003,296.3640000000001,-0.0057075,-0.00067555,0.0,0 STARLINK-3058,1 49138U 21082J   22121.91668981 -.00067555  00000-0 -57075-2 0  9990,2 49138  70.0009 243.9369 0003303 272.8640 296.3640 14.98336384 35105,6950.1730000000025,96.107,574.3340000000002,569.743,0.0
49138.0,STARLINK-3058,PAYLOAD,2022-05-02 14:00:01,14.9830187,0.000333,70.0014,242.2563,271.0872,292.9812,-0.0002951,-3.61e-05,0.0,0 STARLINK-3058,1 49138U 21082J   22122.58334491 -.00003610  00000-0 -29510-3 0  9996,2 49138  70.0014 242.2563 0003330 271.0872 292.9812 14.98301870  3590,6950.28,96.109,574.4590000000002,569.83,0.0
49138.0,STARLINK-3058,PAYLOAD,2022-05-02 16:00:00,14.98289273,0.0003298,70.0013,242.0462,272.7836,20.6521,0.0027059,0.00032309,0.0,0 STARLINK-3058,1 49138U 21082J   22122.66667824  .00032309  00000-0  27059-2 0  9994,2 49138  70.0013 242.0462 0003298 272.7836  20.6521 14.98289273 35215,6950.319,96.11,574.476,569.8919999999998,0.0
49138.0,STARLINK-3058,PAYLOAD,2022-05-02 22:00:01,14.98329758,0.0003292,70.0011,241.4159,272.7305,288.8453,-0.0028219,-0.00033603,0.0,0 STARLINK-3058,1 49138U 21082J   22122.91668981 -.00033603  00000-0 -28219-2 0  9996,2 49138  70.0011 241.4159 0003292 272.7305 288.8453 14.98329758  3595,6950.194,96.107,574.347,569.771,0.0
49138.0,STARLINK-3058,PAYLOAD,2022-05-03 14:00:01,14.98318119,0.0003361,70.0013,239.7354,271.7468,284.7024,0.00012042,1.344e-05,0.0,0 STARLINK-3058,1 49138U 21082J   22123.58334491  .00001344  00000-0  12042-3 0  9999,2 49138  70.0013 239.7354 0003361 271.7468 284.7024 14.98318119 35357,6950.23,96.108,574.431,569.759,0.0
49138.0,STARLINK-3058,PAYLOAD,2022-05-03 22:00:00,14.98351447,0.000329,70.0009,238.895,272.9771,280.9405,-0.0032105,-0.00038214,0.0,0 STARLINK-3058,1 49138U 21082J   22123.91667824 -.00038214  00000-0 -32105-2 0  9994,2 49138  70.0009 238.8950 0003290 272.9771 280.9405 14.98351447  3587,6950.127,96.106,574.278,569.705,0.0
49138.0,STARLINK-3058,PAYLOAD,2022-05-04 06:00:02,14.98318691,0.0003313,70.0011,238.0548,267.7022,283.7721,0.0043717,0.00052447,0.0,0 STARLINK-3058,1 49138U 21082J   22124.25002315  .00052447  00000-0  43717-2 0  9993,2 49138  70.0011 238.0548 0003313 267.7022 283.7721 14.98318691 35459,6950.228,96.108,574.395,569.79,0.0
49138.0,STARLINK-3058,PAYLOAD,2022-05-04 14:00:01,14.98339852,0.0003348,70.001,237.2143,272.4723,276.4365,0.0008391,9.936e-05,0.0,0 STARLINK-3058,1 49138U 21082J   22124.58334491  .00009936  00000-0  83910-3 0  9997,2 49138  70.0010 237.2143 0003348 272.4723 276.4365 14.98339852  3550,6950.1619999999975,96.106,574.354,569.701,0.0
49138.0,STARLINK-3058,PAYLOAD,2022-05-04 22:00:01,14.98376243,0.0003263,70.0007,236.3739,273.3131,273.1515,-0.0036012,-0.00042852,0.0,0 STARLINK-3058,1 49138U 21082J   22124.91668981 -.00042852  00000-0 -36012-2 0  9994,2 49138  70.0007 236.3739 0003263 273.3131 273.1515 14.98376243 35557,6950.05,96.104,574.183,569.6469999999998,0.0
49138.0,STARLINK-3058,PAYLOAD,2022-05-05 14:00:01,14.98336702,0.0003204,70.0009,234.6931,272.7071,268.7236,-9.9266e-06,-2.11e-06,0.0,0 STARLINK-3058,1 49138U 21082J   22125.58334491 -.00000211  00000-0 -99266-5 0  9990,2 49138  70.0009 234.6931 0003204 272.7071 268.7236 14.98336702  3602,6950.172,96.107,574.264,569.81,0.0
49138.0,STARLINK-3058,PAYLOAD,2022-05-05 16:00:00,14.98333628,0.0003177,70.0008,234.4829,274.0663,356.7396,0.00084719,0.00010031,0.0,0 STARLINK-3058,1 49138U 21082J   22125.66667824  .00010031  00000-0  84719-3 0  9992,2 49138  70.0008 234.4829 0003177 274.0663 356.7396 14.98333628 35666,6950.182,96.107,574.255,569.839,0.0
49138.0,STARLINK-3058,PAYLOAD,2022-05-05 22:00:00,14.98358888,0.0003123,70.0004,233.8526,272.8417,266.0794,-0.0057427,-0.00068005,0.0,0 STARLINK-3058,1 49138U 21082J   22125.91667824 -.00068005  00000-0 -57427-2 0  9991,2 49138  70.0004 233.8526 0003123 272.8417 266.0794 14.98358888  3589,6950.104,96.105,574.139,569.798,0.0
49138.0,STARLINK-3058,PAYLOAD,2022-05-06 14:00:01,14.98321692,0.0003177,70.0006,232.1718,271.884,262.0351,0.00086695,0.00010264,0.0,0 STARLINK-3058,1 49138U 21082J   22126.58334491  .00010264  00000-0  86695-3 0  9998,2 49138  70.0006 232.1718 0003177 271.8840 262.0351 14.98321692  3605,6950.219,96.108,574.2919999999998,569.875,0.0
49138.0,STARLINK-3058,PAYLOAD,2022-05-06 16:00:00,14.98311848,0.0003163,70.0006,231.9615,273.331,349.959,0.0030952,0.00037017,0.0,0 STARLINK-3058,1 49138U 21082J   22126.66667824  .00037017  00000-0  30952-2 0  9995,2 49138  70.0006 231.9615 0003163 273.3310 349.9590 14.98311848 35812,6950.249,96.108,574.312,569.9159999999998,0.0
